{
  "norad_id": 43876,
  "name": "KANOPUS-V 5",
  "history": [
    {
      "epoch": "2026-05-11T20:35:09.534336Z",
      "apogee_km": 498.78637064496615,
      "perigee_km": 495.9756588805312,
      "latitude_deg": 2.6641133375138273e-05,
      "longitude_deg": -140.32772408936916,
      "height_km": 500.33379257022,
      "semi_major_axis_km": 6875.518014762748,
      "eccentricity": 0.0002044,
      "inclination_deg": 97.3611,
      "raan_deg": 38.1026,
      "arg_perigee_deg": 84.3114,
      "mean_anomaly_deg": 275.8356,
      "mean_motion_rev_day": 15.22806162
    },
    {
      "epoch": "2026-05-12T20:14:30.053760Z",
      "apogee_km": 498.7734407456419,
      "perigee_km": 495.96548390642874,
      "latitude_deg": 6.824269503891264e-05,
      "longitude_deg": -135.16893168943776,
      "height_km": 500.31148731443346,
      "semi_major_axis_km": 6875.506462326035,
      "eccentricity": 0.0002042,
      "inclination_deg": 97.361,
      "raan_deg": 39.0684,
      "arg_perigee_deg": 83.8644,
      "mean_anomaly_deg": 276.2826,
      "mean_motion_rev_day": 15.2281
    },
    {
      "epoch": "2026-05-13T19:53:50.426304Z",
      "apogee_km": 498.7607254026361,
      "perigee_km": 495.95827302955604,
      "latitude_deg": 2.413840384578447e-05,
      "longitude_deg": -130.0096143944271,
      "height_km": 500.2961504923888,
      "semi_major_axis_km": 6875.496499216096,
      "eccentricity": 0.0002038,
      "inclination_deg": 97.3605,
      "raan_deg": 40.0341,
      "arg_perigee_deg": 83.6299,
      "mean_anomaly_deg": 276.517,
      "mean_motion_rev_day": 15.2281331
    },
    {
      "epoch": "2026-05-14T06:56:11.885280Z",
      "apogee_km": 498.75573080354206,
      "perigee_km": 495.95328046584564,
      "latitude_deg": 3.0224819720210605e-05,
      "longitude_deg": 64.39830489272961,
      "height_km": 500.287904964165,
      "semi_major_axis_km": 6875.491505634694,
      "eccentricity": 0.0002038,
      "inclination_deg": 97.3604,
      "raan_deg": 40.4848,
      "arg_perigee_deg": 83.4959,
      "mean_anomaly_deg": 276.651,
      "mean_motion_rev_day": 15.22814969
    },
    {
      "epoch": "2026-05-15T06:35:32.057376Z",
      "apogee_km": 498.7448073417281,
      "perigee_km": 495.95308502813805,
      "latitude_deg": 2.6749012541473466e-05,
      "longitude_deg": 69.5584537550898,
      "height_km": 500.2789673028654,
      "semi_major_axis_km": 6875.485946184933,
      "eccentricity": 0.00020302,
      "inclination_deg": 97.3604,
      "raan_deg": 41.4505,
      "arg_perigee_deg": 83.3305,
      "mean_anomaly_deg": 276.8163,
      "mean_motion_rev_day": 15.22816816
    }
  ]
}